CCSDS_OMM_VERS = 2.0
CREATION_DATE  = 
ORIGINATOR     = 

OBJECT_NAME    = STARLINK-36442
OBJECT_ID      = 2026-005K
CENTER_NAME    = EARTH
REF_FRAME      = TEME
TIME_SYSTEM    = UTC
MEAN_ELEMENT_THEORY = SGP/SGP4

EPOCH          = 2026-01-25T04:00:00.999936
MEAN_MOTION    = 15.79534903
ECCENTRICITY   = .0001605
INCLINATION    = 42.9997
RA_OF_ASC_NODE = 129.8156
ARG_OF_PERICENTER = 270.0756
MEAN_ANOMALY   = 349.8153

EPHEMERIS_TYPE = 0
CLASSIFICATION_TYPE = U
NORAD_CAT_ID   = 67413
ELEMENT_SET_NO = 999
REV_AT_EPOCH   = 318
BSTAR          = -.90428E-2
MEAN_MOTION_DOT = -.1496809E-1
MEAN_MOTION_DDOT = 0

CCSDS_OMM_VERS = 2.0
CREATION_DATE  = 
ORIGINATOR     = 

OBJECT_NAME    = STARLINK-36506
OBJECT_ID      = 2026-005L
CENTER_NAME    = EARTH
REF_FRAME      = TEME
TIME_SYSTEM    = UTC
MEAN_ELEMENT_THEORY = SGP/SGP4

EPOCH          = 2026-01-25T04:00:00.999936
MEAN_MOTION    = 15.79527903
ECCENTRICITY   = .0001489
INCLINATION    = 43.0000
RA_OF_ASC_NODE = 129.8105
ARG_OF_PERICENTER = 266.8778
MEAN_ANOMALY   = 354.9757

EPHEMERIS_TYPE = 0
CLASSIFICATION_TYPE = U
NORAD_CAT_ID   = 67414
ELEMENT_SET_NO = 999
REV_AT_EPOCH   = 318
BSTAR          = -.90176E-2
MEAN_MOTION_DOT = -.1492625E-1
MEAN_MOTION_DDOT = 0

CCSDS_OMM_VERS = 2.0
CREATION_DATE  = 
ORIGINATOR     = 

OBJECT_NAME    = STARLINK-36468
OBJECT_ID      = 2026-005M
CENTER_NAME    = EARTH
REF_FRAME      = TEME
TIME_SYSTEM    = UTC
MEAN_ELEMENT_THEORY = SGP/SGP4

EPOCH          = 2026-01-25T04:00:00.999936
MEAN_MOTION    = 15.79551746
ECCENTRICITY   = .0001443
INCLINATION    = 42.9999
RA_OF_ASC_NODE = 129.8061
ARG_OF_PERICENTER = 268.4283
MEAN_ANOMALY   = 355.2729

EPHEMERIS_TYPE = 0
CLASSIFICATION_TYPE = U
NORAD_CAT_ID   = 67415
ELEMENT_SET_NO = 999
REV_AT_EPOCH   = 314
BSTAR          = -.91025E-2
MEAN_MOTION_DOT = -.1506408E-1
MEAN_MOTION_DDOT = 0

CCSDS_OMM_VERS = 2.0
CREATION_DATE  = 
ORIGINATOR     = 

OBJECT_NAME    = STARLINK-36487
OBJECT_ID      = 2026-005N
CENTER_NAME    = EARTH
REF_FRAME      = TEME
TIME_SYSTEM    = UTC
MEAN_ELEMENT_THEORY = SGP/SGP4

EPOCH          = 2026-01-25T04:00:00.999936
MEAN_MOTION    = 15.79542775
ECCENTRICITY   = .0001341
INCLINATION    = 42.9998
RA_OF_ASC_NODE = 129.8009
ARG_OF_PERICENTER = 271.6085
MEAN_ANOMALY   = 354.0831

EPHEMERIS_TYPE = 0
CLASSIFICATION_TYPE = U
NORAD_CAT_ID   = 67416
ELEMENT_SET_NO = 999
REV_AT_EPOCH   = 318
BSTAR          = -.91149E-2
MEAN_MOTION_DOT = -.1507596E-1
MEAN_MOTION_DDOT = 0

CCSDS_OMM_VERS = 2.0
CREATION_DATE  = 
ORIGINATOR     = 

OBJECT_NAME    = STARLINK-36374
OBJECT_ID      = 2026-005P
CENTER_NAME    = EARTH
REF_FRAME      = TEME
TIME_SYSTEM    = UTC
MEAN_ELEMENT_THEORY = SGP/SGP4

EPOCH          = 2026-01-25T04:00:00.999936
MEAN_MOTION    = 15.79512947
ECCENTRICITY   = .0001296
INCLINATION    = 42.9999
RA_OF_ASC_NODE = 129.7958
ARG_OF_PERICENTER = 270.6509
MEAN_ANOMALY   = 357.1514

EPHEMERIS_TYPE = 0
CLASSIFICATION_TYPE = U
NORAD_CAT_ID   = 67417
ELEMENT_SET_NO = 999
REV_AT_EPOCH   = 318
BSTAR          = -.91857E-2
MEAN_MOTION_DOT = -.1516011E-1
MEAN_MOTION_DDOT = 0

CCSDS_OMM_VERS = 2.0
CREATION_DATE  = 
ORIGINATOR     = 

OBJECT_NAME    = STARLINK-36455
OBJECT_ID      = 2026-005Q
CENTER_NAME    = EARTH
REF_FRAME      = TEME
TIME_SYSTEM    = UTC
MEAN_ELEMENT_THEORY = SGP/SGP4

EPOCH          = 2026-01-25T04:00:00.999936
MEAN_MOTION    = 15.79466535
ECCENTRICITY   = .0001283
INCLINATION    = 42.9999
RA_OF_ASC_NODE = 129.7899
ARG_OF_PERICENTER = 266.4310
MEAN_ANOMALY   = 3.5899

EPHEMERIS_TYPE = 0
CLASSIFICATION_TYPE = U
NORAD_CAT_ID   = 67418
ELEMENT_SET_NO = 999
REV_AT_EPOCH   = 318
BSTAR          = -.92732E-2
MEAN_MOTION_DOT = -.1525787E-1
MEAN_MOTION_DDOT = 0

CCSDS_OMM_VERS = 2.0
CREATION_DATE  = 
ORIGINATOR     = 

OBJECT_NAME    = STARLINK-36424
OBJECT_ID      = 2026-005R
CENTER_NAME    = EARTH
REF_FRAME      = TEME
TIME_SYSTEM    = UTC
MEAN_ELEMENT_THEORY = SGP/SGP4

EPOCH          = 2026-01-25T04:00:00.999936
MEAN_MOTION    = 15.79413557
ECCENTRICITY   = .0001504
INCLINATION    = 43.0000
RA_OF_ASC_NODE = 129.7845
ARG_OF_PERICENTER = 270.1319
MEAN_ANOMALY   = 2.1104

EPHEMERIS_TYPE = 0
CLASSIFICATION_TYPE = U
NORAD_CAT_ID   = 67419
ELEMENT_SET_NO = 999
REV_AT_EPOCH   = 318
BSTAR          = -.93195E-2
MEAN_MOTION_DOT = -.1529354E-1
MEAN_MOTION_DDOT = 0

CCSDS_OMM_VERS = 2.0
CREATION_DATE  = 
ORIGINATOR     = 

OBJECT_NAME    = STARLINK-35564
OBJECT_ID      = 2026-005S
CENTER_NAME    = EARTH
REF_FRAME      = TEME
TIME_SYSTEM    = UTC
MEAN_ELEMENT_THEORY = SGP/SGP4

EPOCH          = 2026-01-25T04:00:00.999936
MEAN_MOTION    = 15.79394808
ECCENTRICITY   = .0001358
INCLINATION    = 43.0000
RA_OF_ASC_NODE = 129.7796
ARG_OF_PERICENTER = 269.1124
MEAN_ANOMALY   = 5.2016

EPHEMERIS_TYPE = 0
CLASSIFICATION_TYPE = U
NORAD_CAT_ID   = 67420
ELEMENT_SET_NO = 999
REV_AT_EPOCH   = 308
BSTAR          = -.94213E-2
MEAN_MOTION_DOT = -.1542701E-1
MEAN_MOTION_DDOT = 0

CCSDS_OMM_VERS = 2.0
CREATION_DATE  = 
ORIGINATOR     = 

OBJECT_NAME    = STARLINK-36431
OBJECT_ID      = 2026-005T
CENTER_NAME    = EARTH
REF_FRAME      = TEME
TIME_SYSTEM    = UTC
MEAN_ELEMENT_THEORY = SGP/SGP4

EPOCH          = 2026-01-25T04:00:00.999936
MEAN_MOTION    = 15.79346669
ECCENTRICITY   = .0001641
INCLINATION    = 43.0002
RA_OF_ASC_NODE = 129.7742
ARG_OF_PERICENTER = 275.4123
MEAN_ANOMALY   = 0.9965

EPHEMERIS_TYPE = 0
CLASSIFICATION_TYPE = U
NORAD_CAT_ID   = 67421
ELEMENT_SET_NO = 999
REV_AT_EPOCH   = 298
BSTAR          = -.9272E-2
MEAN_MOTION_DOT = -.1518503E-1
MEAN_MOTION_DDOT = 0

CCSDS_OMM_VERS = 2.0
CREATION_DATE  = 
ORIGINATOR     = 

OBJECT_NAME    = STARLINK-36418
OBJECT_ID      = 2026-005U
CENTER_NAME    = EARTH
REF_FRAME      = TEME
TIME_SYSTEM    = UTC
MEAN_ELEMENT_THEORY = SGP/SGP4

EPOCH          = 2026-01-25T04:00:00.999936
MEAN_MOTION    = 15.79365211
ECCENTRICITY   = .000144
INCLINATION    = 42.9999
RA_OF_ASC_NODE = 129.7694
ARG_OF_PERICENTER = 272.5503
MEAN_ANOMALY   = 5.7933

EPHEMERIS_TYPE = 0
CLASSIFICATION_TYPE = U
NORAD_CAT_ID   = 67422
ELEMENT_SET_NO = 999
REV_AT_EPOCH   = 314
BSTAR          = -.94751E-2
MEAN_MOTION_DOT = -.1548615E-1
MEAN_MOTION_DDOT = 0

CCSDS_OMM_VERS = 2.0
CREATION_DATE  = 
ORIGINATOR     = 

OBJECT_NAME    = STARLINK-36465
OBJECT_ID      = 2026-005V
CENTER_NAME    = EARTH
REF_FRAME      = TEME
TIME_SYSTEM    = UTC
MEAN_ELEMENT_THEORY = SGP/SGP4

EPOCH          = 2026-01-25T04:00:00.999936
MEAN_MOTION    = 15.79314798
ECCENTRICITY   = .0001656
INCLINATION    = 43.0002
RA_OF_ASC_NODE = 129.7639
ARG_OF_PERICENTER = 270.1649
MEAN_ANOMALY   = 10.3839

EPHEMERIS_TYPE = 0
CLASSIFICATION_TYPE = U
NORAD_CAT_ID   = 67423
ELEMENT_SET_NO = 999
REV_AT_EPOCH   = 293
BSTAR          = -.95593E-2
MEAN_MOTION_DOT = -.1557644E-1
MEAN_MOTION_DDOT = 0

CCSDS_OMM_VERS = 2.0
CREATION_DATE  = 
ORIGINATOR     = 

OBJECT_NAME    = STARLINK-36362
OBJECT_ID      = 2026-005W
CENTER_NAME    = EARTH
REF_FRAME      = TEME
TIME_SYSTEM    = UTC
MEAN_ELEMENT_THEORY = SGP/SGP4

EPOCH          = 2026-01-25T04:00:00.999936
MEAN_MOTION    = 15.79282923
ECCENTRICITY   = .0001513
INCLINATION    = 43.0001
RA_OF_ASC_NODE = 129.7586
ARG_OF_PERICENTER = 273.8773
MEAN_ANOMALY   = 8.8107

EPHEMERIS_TYPE = 0
CLASSIFICATION_TYPE = U
NORAD_CAT_ID   = 67424
ELEMENT_SET_NO = 999
REV_AT_EPOCH   = 318
BSTAR          = -.97144E-2
MEAN_MOTION_DOT = -.1577538E-1
MEAN_MOTION_DDOT = 0

CCSDS_OMM_VERS = 2.0
CREATION_DATE  = 
ORIGINATOR     = 

OBJECT_NAME    = STARLINK-36447
OBJECT_ID      = 2026-005X
CENTER_NAME    = EARTH
REF_FRAME      = TEME
TIME_SYSTEM    = UTC
MEAN_ELEMENT_THEORY = SGP/SGP4

EPOCH          = 2026-01-25T04:00:00.999936
MEAN_MOTION    = 15.79230051
ECCENTRICITY   = .0001644
INCLINATION    = 43.0001
RA_OF_ASC_NODE = 129.7529
ARG_OF_PERICENTER = 263.2877
MEAN_ANOMALY   = 21.5909

EPHEMERIS_TYPE = 0
CLASSIFICATION_TYPE = U
NORAD_CAT_ID   = 67425
ELEMENT_SET_NO = 999
REV_AT_EPOCH   = 318
BSTAR          = -.97418E-2
MEAN_MOTION_DOT = -.1578171E-1
MEAN_MOTION_DDOT = 0

CCSDS_OMM_VERS = 2.0
CREATION_DATE  = 
ORIGINATOR     = 

OBJECT_NAME    = STARLINK-36146
OBJECT_ID      = 2026-005Y
CENTER_NAME    = EARTH
REF_FRAME      = TEME
TIME_SYSTEM    = UTC
MEAN_ELEMENT_THEORY = SGP/SGP4

EPOCH          = 2026-01-25T04:00:00.999936
MEAN_MOTION    = 15.79199026
ECCENTRICITY   = .0001593
INCLINATION    = 43.0000
RA_OF_ASC_NODE = 129.7473
ARG_OF_PERICENTER = 266.3810
MEAN_ANOMALY   = 20.6116

EPHEMERIS_TYPE = 0
CLASSIFICATION_TYPE = U
NORAD_CAT_ID   = 67426
ELEMENT_SET_NO = 999
REV_AT_EPOCH   = 314
BSTAR          = -.98468E-2
MEAN_MOTION_DOT = -.1590956E-1
MEAN_MOTION_DDOT = 0

CCSDS_OMM_VERS = 2.0
CREATION_DATE  = 
ORIGINATOR     = 

OBJECT_NAME    = STARLINK-36459
OBJECT_ID      = 2026-005Z
CENTER_NAME    = EARTH
REF_FRAME      = TEME
TIME_SYSTEM    = UTC
MEAN_ELEMENT_THEORY = SGP/SGP4

EPOCH          = 2026-01-25T04:00:00.999936
MEAN_MOTION    = 15.79162899
ECCENTRICITY   = .0001407
INCLINATION    = 42.9999
RA_OF_ASC_NODE = 129.7417
ARG_OF_PERICENTER = 272.8789
MEAN_ANOMALY   = 16.2078

EPHEMERIS_TYPE = 0
CLASSIFICATION_TYPE = U
NORAD_CAT_ID   = 67427
ELEMENT_SET_NO = 999
REV_AT_EPOCH   = 311
BSTAR          = -.98855E-2
MEAN_MOTION_DOT = -.1593946E-1
MEAN_MOTION_DDOT = 0

